{
    "links": {
        "self": "http://www.neowsapp.com/rest/v1/neo/3698558?api_key=iIulBulltgU6a56xZRHN4H3l9WmuAYTsLGpBGhQ2"
    },
    "id": "3698558",
    "neo_reference_id": "3698558",
    "name": "(2014 HD199)",
    "designation": "2014 HD199",
    "nasa_jpl_url": "http://ssd.jpl.nasa.gov/sbdb.cgi?sstr=3698558",
    "absolute_magnitude_h": 22.3,
    "estimated_diameter": {
        "kilometers": {
            "estimated_diameter_min": 0.0921626549,
            "estimated_diameter_max": 0.2060819612
        },
        "meters": {
            "estimated_diameter_min": 92.1626548503,
            "estimated_diameter_max": 206.0819612321
        },
        "miles": {
            "estimated_diameter_min": 0.057267201,
            "estimated_diameter_max": 0.1280533543
        },
        "feet": {
            "estimated_diameter_min": 302.370924539,
            "estimated_diameter_max": 676.1219416887
        }
    },
    "is_potentially_hazardous_asteroid": false,
    "close_approach_data": [
        {
            "close_approach_date": "2014-01-25",
            "close_approach_date_full": "2014-Jan-25 17:02",
            "epoch_date_close_approach": 1390669320000,
            "relative_velocity": {
                "kilometers_per_second": "5.5778829456",
                "kilometers_per_hour": "20080.3786039972",
                "miles_per_hour": "12477.1663609115"
            },
            "miss_distance": {
                "astronomical": "0.1118406989",
                "lunar": "43.5060318721",
                "kilometers": "16731130.334751343",
                "miles": "10396242.3098528134"
            },
            "orbiting_body": "Earth"
        }
    ],
    "orbital_data": {
        "orbit_id": "10",
        "orbit_determination_date": "2019-12-18 11:21:06",
        "first_observation_date": "2014-04-28",
        "last_observation_date": "2014-05-02",
        "data_arc_in_days": 4,
        "observations_used": 18,
        "orbit_uncertainty": "9",
        "minimum_orbit_intersection": ".103324",
        "jupiter_tisserand_invariant": "4.281",
        "epoch_osculation": "2456777.5",
        "eccentricity": ".3848403306921321",
        "semi_major_axis": "1.593055940249035",
        "inclination": "6.727105344977779",
        "ascending_node_longitude": "234.0734395535752",
        "orbital_period": "734.4207967659595",
        "perihelion_distance": ".979983765392531",
        "perihelion_argument": "270.3396542479096",
        "aphelion_distance": "2.206128115105539",
        "perihelion_time": "2456700.127428627409",
        "mean_anomaly": "37.92665705653912",
        "mean_motion": ".4901821974340447",
        "equinox": "J2000",
        "orbit_class": {
            "orbit_class_type": "APO",
            "orbit_class_description": "Near-Earth asteroid orbits which cross the Earth’s orbit similar to that of 1862 Apollo",
            "orbit_class_range": "a (semi-major axis) > 1.0 AU; q (perihelion) < 1.017 AU"
        }
    },
    "is_sentry_object": false
}